NAVSTAR 48 (USA 151)    
1 26407U 00040A   26166.43568044  .00000066  00000+0  00000+0 0  9998
2 26407  54.8515 215.2318 0121052 302.4643 156.7023  2.00557608189919
NAVSTAR 51 (USA 166)    
1 27663U 03005A   26166.20877477  .00000070  00000+0  00000+0 0  9990
2 27663  54.8824 215.0476 0147941  53.0894  18.2168  2.00560631171274
NAVSTAR 54 (USA 177)    
1 28190U 04009A   26166.39420079 -.00000029  00000+0  00000+0 0  9998
2 28190  54.8312 275.7597 0116081 173.0030 185.3664  2.00554690162900
NAVSTAR 56 (USA 180)    
1 28474U 04045A   26164.33708674 -.00000074  00000+0  00000+0 0  9995
2 28474  55.1372 325.0509 0169806 316.2769  61.7561  2.00555605158354
NAVSTAR 57 (USA 183)    
1 28874U 05038A   26166.42923057 -.00000024  00000+0  00000+0 0  9993
2 28874  54.8795 273.2485 0127848 296.1414 116.0961  2.00565706151807
INMARSAT 4-F2           
1 28899U 05044A   26166.36240602 -.00000261  00000+0  00000+0 0  9991
2 28899   5.0924  43.7023 0002790  34.6752  99.2253  1.00270350 75507
NAVSTAR 58 (USA 190)    
1 29486U 06042A   26166.16852093  .00000055  00000+0  00000+0 0  9994
2 29486  54.7104 151.4191 0106633  54.3647  68.0612  2.00569905144358
NAVSTAR 59 (USA 192)    
1 29601U 06052A   26165.92547742  .00000074  00000+0  00000+0 0  9990
2 29601  54.9350 214.0959 0085225  90.8312 270.2365  2.00557951143367
NAVSTAR 60 (USA 196)    
1 32260U 07047A   26166.23042038 -.00000038  00000+0  00000+0 0  9994
2 32260  54.0939  80.1463 0166706  87.3419 274.5656  2.00555244136771
COSMOS 2433 [GLONASS-M] 
1 32275U 07052A   26165.56932375 -.00000054  00000+0  00000+0 0  9991
2 32275  65.5783 316.0222 0002381 192.9273 167.0511  2.13104181145000
COSMOS 2432 [GLONASS-M] 
1 32276U 07052B   26162.35423378 -.00000041  00000+0  00000+0 0  9990
2 32276  65.5974 316.2581 0007764 332.8636  24.5023  2.13103380144959
NAVSTAR 61 (USA 199)    
1 32384U 07062A   26166.53778816 -.00000026  00000+0  00000+0 0  9998
2 32384  55.0330 274.2190 0035692 165.1871 184.0572  2.00559947135475
COSMOS 2434 [GLONASS-M] 
1 32393U 07065A   26164.06710712  .00000117  00000+0  00000+0 0  9998
2 32393  64.3199 192.0547 0001152 331.0720 206.3088  2.13101303143680
COSMOS 2436 [GLONASS-M] 
1 32395U 07065C   26164.25890233  .00000116  00000+0  00000+0 0  9997
2 32395  64.3263 192.1203 0017212 354.2143 102.6396  2.13100224143641
NAVSTAR 62 (USA 201)    
1 32711U 08012A   26166.14191970  .00000054  00000+0  00000+0 0  9995
2 32711  54.4971 150.0064 0211244 247.8226 109.9038  2.00572304133715
NAVSTAR 64 (USA 206)    
1 35752U 09043A   26166.37316323 -.00000069  00000+0  00000+0 0  9991
2 35752  56.2092  27.5229 0053773  83.1204  93.7838  2.00554269123320
COSMOS 2456 [GLONASS-M] 
1 36111U 09070A   26165.28491056 -.00000030  00000+0  00000+0 0  9995
2 36111  65.0096  71.0712 0004674 329.8284 219.9396  2.13103806128368
COSMOS 2457 [GLONASS-M] 
1 36112U 09070B   26166.04071626 -.00000027  00000+0  00000+0 0  9994
2 36112  64.9954  70.8896 0002757 123.8220  53.2040  2.13101207128382
COSMOS 2460 [GLONASS-M] 
1 36402U 10007C   26164.86672859 -.00000052  00000+0  00000+0 0  9999
2 36402  65.4226 314.5793 0002121 106.9290 251.4243  2.13101719126653
NAVSTAR 65 (USA 213)    
1 36585U 10022A   26166.52688360  .00000070  00000+0  00000+0 0  9996
2 36585  54.2703 208.6289 0126337  66.1282 340.3627  2.00562291117564
BEIDOU-2 IGSO-1         
1 36828U 10036A   26165.92383274 -.00000061  00000+0  00000+0 0  9991
2 36828  54.3019 162.9804 0059257 225.1385 315.3352  1.00272534 58071
BEIDOU-2 G4             
1 37210U 10057A   26166.53378266 -.00000113  00000+0  00000+0 0  9991
2 37210   3.6421  68.9526 0005272 196.9382 350.0911  1.00270745 57277
BEIDOU-2 IGSO-2         
1 37256U 10068A   26165.84489821 -.00000216  00000+0  00000+0 0  9990
2 37256  47.5533 271.8616 0055907 212.6114 190.6476  1.00283457 56774
BEIDOU-2 IGSO-3         
1 37384U 11013A   26165.58618677 -.00000189  00000+0  00000+0 0  9996
2 37384  62.4034  40.1764 0034371 184.2029 357.3112  1.00267759 55630
GSAT-8                  
1 37605U 11022A   26166.48381757  .00000086  00000+0  00000+0 0  9993
2 37605   2.1269  81.8432 0002361 203.1822 207.9977  1.00272922 53205
BEIDOU-2 IGSO-4         
1 37763U 11038A   26165.86702985  .00000046  00000+0  00000+0 0  9992
2 37763  54.5995 165.6936 0159483 231.3888 271.5218  1.00285242 54621
GSAT0101 (GALILEO-PFM)  
1 37846U 11060A   26163.74233043 -.00000071  00000+0  00000+0 0  9997
2 37846  56.9957 341.8816 0003117  51.3749 308.6629  1.70475562 91048
GSAT0102 (GALILEO-FM2)  
1 37847U 11060B   26158.40220003 -.00000063  00000+0  00000+0 0  9998
2 37847  57.0009 342.0270 0003434  13.7700 354.5257  1.70476015 90968
COSMOS 2476 [GLONASS-M] 
1 37867U 11064A   26164.36654497 -.00000031  00000+0  00000+0 0  9999
2 37867  65.2676  73.0007 0022731 238.9288 234.6258  2.13103919113685
COSMOS 2477 [GLONASS-M] 
1 37868U 11064B   26164.17359397 -.00000031  00000+0  00000+0 0  9990
2 37868  65.2740  73.0865 0019884 240.5145 265.3672  2.13103103113671
COSMOS 2475 [GLONASS-M] 
1 37869U 11064C   26164.21303852 -.00000031  00000+0  00000+0 0  9991
2 37869  65.2809  73.1067 0025589 253.3203 237.9576  2.13101955113681
